{"type": "FeatureCollection", "features": [ {"type": "Feature", "properties": {"norad_id": 30879, "name": "FENGYUN 1C DEB", "group": "fengyun-1c-debris", "lat": 35.683998170669106, "lon": -148.93387861401706, "alt_km": 791.918016870829, "timestamp": "2025-12-25T09:48:52.569414+00:00", "meta": {"OBJECT_NAME": "FENGYUN 1C DEB", "OBJECT_ID": "1999-025AXR", "EPOCH": "2025-12-23T13:28:40.753056", "MEAN_MOTION": 14.6794774, "ECCENTRICITY": 0.02000253, "INCLINATION": 99.3515, "RA_OF_ASC_NODE": 215.753, "ARG_OF_PERICENTER": 246.8904, "MEAN_ANOMALY": 111.1104, "EPHEMERIS_TYPE": 0, "CLASSIFICATION_TYPE": "U", "NORAD_CAT_ID": 30879, "ELEMENT_SET_NO": 999, "REV_AT_EPOCH": 62098, "BSTAR": 0.0043903952, "MEAN_MOTION_DOT": 0.0003413, "MEAN_MOTION_DDOT": 0}, "tle": {"line1": "1 30879U 99025AXR 25357.56158279  .00034130  00000+0  43904-2 0  9999", "line2": "2 30879  99.3515 215.7530 0200025 246.8904 111.1104 14.67947740620989"}}, "geometry": {"type": "Point", "coordinates": [-148.93387861401706, 35.683998170669106]}}, {"type": "Feature", "properties": {"norad_id": 30880, "name": "FENGYUN 1C DEB", "group": "fengyun-1c-debris", "lat": 81.03756980937482, "lon": -7.670600143146927, "alt_km": 783.9890997201173, "timestamp": "2025-12-25T09:48:52.569424+00:00", "meta": {"OBJECT_NAME": "FENGYUN 1C DEB", "OBJECT_ID": "1999-025AXS", "EPOCH": "2025-12-24T21:36:46.418400", "MEAN_MOTION": 14.2566963, "ECCENTRICITY": 0.00214868, "INCLINATION": 98.7936, "RA_OF_ASC_NODE": 70.7781, "ARG_OF_PERICENTER": 73.0027, "MEAN_ANOMALY": 287.3505, "EPHEMERIS_TYPE": 0, "CLASSIFICATION_TYPE": "U", "NORAD_CAT_ID": 30880, "ELEMENT_SET_NO": 999, "REV_AT_EPOCH": 96887, "BSTAR": 0.0013417005, "MEAN_MOTION_DOT": 3.145e-05, "MEAN_MOTION_DDOT": 0}, "tle": {"line1": "1 30880U 99025AXS 25358.90053725  .00003145  00000+0  13417-2 0  9998", "line2": "2 30880  98.7936  70.7781 0021486  73.0027 287.3505 14.25669630968873"}}, "geometry": {"type": "Point", "coordinates": [-7.670600143146927, 81.03756980937482]}}, {"type": "Feature", "properties": {"norad_id": 30882, "name": "FENGYUN 1C DEB", "group": "fengyun-1c-debris", "lat": -23.860989993444864, "lon": -128.79757448859914, "alt_km": 709.2685615892333, "timestamp": "2025-12-25T09:48:52.569434+00:00", "meta": {"OBJECT_NAME": "FENGYUN 1C DEB", "OBJECT_ID": "1999-025AXU", "EPOCH": "2025-12-24T21:35:29.328864", "MEAN_MOTION": 14.86926866, "ECCENTRICITY": 0.0151923, "INCLINATION": 97.9406, "RA_OF_ASC_NODE": 54.2328, "ARG_OF_PERICENTER": 1.0542, "MEAN_ANOMALY": 359.0964, "EPHEMERIS_TYPE": 0, "CLASSIFICATION_TYPE": "U", "NORAD_CAT_ID": 30882, "ELEMENT_SET_NO": 999, "REV_AT_EPOCH": 99835, "BSTAR": 0.00097385468, "MEAN_MOTION_DOT": 0.00010706, "MEAN_MOTION_DDOT": 0}, "tle": {"line1": "1 30882U 99025AXU 25358.89964501  .00010706  00000+0  97385-3 0  9999", "line2": "2 30882  97.9406  54.2328 0151923   1.0542 359.0964 14.86926866998351"}}, "geometry": {"type": "Point", "coordinates": [-128.79757448859914, -23.860989993444864]}}, {"type": "Feature", "properties": {"norad_id": 30883, "name": "FENGYUN 1C DEB", "group": "fengyun-1c-debris", "lat": 7.182563031274182, "lon": -143.2418951691924, "alt_km": 764.7960262200995, "timestamp": "2025-12-25T09:48:52.569444+00:00", "meta": {"OBJECT_NAME": "FENGYUN 1C DEB", "OBJECT_ID": "1999-025AXV", "EPOCH": "2025-12-23T20:29:21.267168", "MEAN_MOTION": 14.14557634, "ECCENTRICITY": 0.01124428, "INCLINATION": 98.3605, "RA_OF_ASC_NODE": 34.2395, "ARG_OF_PERICENTER": 181.8091, "MEAN_ANOMALY": 355.5711, "EPHEMERIS_TYPE": 0, "CLASSIFICATION_TYPE": "U", "NORAD_CAT_ID": 30883, "ELEMENT_SET_NO": 999, "REV_AT_EPOCH": 97074, "BSTAR": 0.00016040915, "MEAN_MOTION_DOT": 2.87e-06, "MEAN_MOTION_DDOT": 0}, "tle": {"line1": "1 30883U 99025AXV 25357.85371837  .00000287  00000+0  16041-3 0  9992", "line2": "2 30883  98.3605  34.2395 0112442 181.8091 355.5711 14.14557634970747"}}, "geometry": {"type": "Point", "coordinates": [-143.2418951691924, 7.182563031274182]}}, {"type": "Feature", "properties": {"norad_id": 30884, "name": "FENGYUN 1C DEB", "group": "fengyun-1c-debris", "lat": -59.9112778645163, "lon": 10.122552517642816, "alt_km": 609.988964514132, "timestamp": "2025-12-25T09:48:52.569457+00:00", "meta": {"OBJECT_NAME": "FENGYUN 1C DEB", "OBJECT_ID": "1999-025AXW", "EPOCH": "2025-12-24T22:40:58.135584", "MEAN_MOTION": 14.73780454, "ECCENTRICITY": 0.00657008, "INCLINATION": 98.8915, "RA_OF_ASC_NODE": 353.9393, "ARG_OF_PERICENTER": 297.3751, "MEAN_ANOMALY": 62.0779, "EPHEMERIS_TYPE": 0, "CLASSIFICATION_TYPE": "U", "NORAD_CAT_ID": 30884, "ELEMENT_SET_NO": 999, "REV_AT_EPOCH": 98841, "BSTAR": 0.0020770616, "MEAN_MOTION_DOT": 0.00014021, "MEAN_MOTION_DDOT": 0}, "tle": {"line1": "1 30884U 99025AXW 25358.94511731  .00014021  00000+0  20771-2 0  9998", "line2": "2 30884  98.8915 353.9393 0065700 297.3751  62.0779 14.73780454988416"}}, "geometry": {"type": "Point", "coordinates": [10.122552517642816, -59.9112778645163]}}, {"type": "Feature", "properties": {"norad_id": 30885, "name": "FENGYUN 1C DEB", "group": "fengyun-1c-debris", "lat": -34.75655971560027, "lon": -152.8419641573371, "alt_km": 763.4856881487813, "timestamp": "2025-12-25T09:48:52.569468+00:00", "meta": {"OBJECT_NAME": "FENGYUN 1C DEB", "OBJECT_ID": "1999-025AXX", "EPOCH": "2025-12-24T01:32:45.943296", "MEAN_MOTION": 14.49623199, "ECCENTRICITY": 0.00532152, "INCLINATION": 99.0262, "RA_OF_ASC_NODE": 199.387, "ARG_OF_PERICENTER": 184.9579, "MEAN_ANOMALY": 326.9163, "EPHEMERIS_TYPE": 0, "CLASSIFICATION_TYPE": "U", "NORAD_CAT_ID": 30885, "ELEMENT_SET_NO": 999, "REV_AT_EPOCH": 97141, "BSTAR": 0.0023689475, "MEAN_MOTION_DOT": 9.227e-05, "MEAN_MOTION_DDOT": 0}, "tle": {"line1": "1 30885U 99025AXX 25358.06442064  .00009227  00000+0  23689-2 0  9997", "line2": "2 30885  99.0262 199.3870 0053215 184.9579 326.9163 14.49623199971410"}}, "geometry": {"type": "Point", "coordinates": [-152.8419641573371, -34.75655971560027]}}, {"type": "Feature", "properties": {"norad_id": 30886, "name": "FENGYUN 1C DEB", "group": "fengyun-1c-debris", "lat": 76.92432760735282, "lon": -151.34709824527138, "alt_km": 804.1350523340234, "timestamp": "2025-12-25T09:48:52.569478+00:00", "meta": {"OBJECT_NAME": "FENGYUN 1C DEB", "OBJECT_ID": "1999-025AXY", "EPOCH": "2025-12-23T21:59:52.245024", "MEAN_MOTION": 14.2286504, "ECCENTRICITY": 0.0036426, "INCLINATION": 99.209, "RA_OF_ASC_NODE": 251.3989, "ARG_OF_PERICENTER": 4.0071, "MEAN_ANOMALY": 356.1391, "EPHEMERIS_TYPE": 0, "CLASSIFICATION_TYPE": "U", "NORAD_CAT_ID": 30886, "ELEMENT_SET_NO": 999, "REV_AT_EPOCH": 96555, "BSTAR": 0.0018691, "MEAN_MOTION_DOT": 4.181e-05, "MEAN_MOTION_DDOT": 0}, "tle": {"line1": "1 30886U 99025AXY 25357.91657691  .00004181  00000+0  18691-2 0  9996", "line2": "2 30886  99.2090 251.3989 0036426   4.0071 356.1391 14.22865040965556"}}, "geometry": {"type": "Point", "coordinates": [-151.34709824527138, 76.92432760735282]}}, {"type": "Feature", "properties": {"norad_id": 30887, "name": "FENGYUN 1C DEB", "group": "fengyun-1c-debris", "lat": -26.36753057747719, "lon": 59.28703456655904, "alt_km": 724.1872582477963, "timestamp": "2025-12-25T09:48:52.569487+00:00", "meta": {"OBJECT_NAME": "FENGYUN 1C DEB", "OBJECT_ID": "1999-025AXZ", "EPOCH": "2025-12-24T02:21:37.522944", "MEAN_MOTION": 14.44890855, "ECCENTRICITY": 0.02636074, "INCLINATION": 98.3669, "RA_OF_ASC_NODE": 53.8111, "ARG_OF_PERICENTER": 253.2065, "MEAN_ANOMALY": 104.0058, "EPHEMERIS_TYPE": 0, "CLASSIFICATION_TYPE": "U", "NORAD_CAT_ID": 30887, "ELEMENT_SET_NO": 999, "REV_AT_EPOCH": 98292, "BSTAR": 0.00072415808, "MEAN_MOTION_DOT": 3.812e-05, "MEAN_MOTION_DDOT": 0}, "tle": {"line1": "1 30887U 99025AXZ 25358.09835096  .00003812  00000+0  72416-3 0  9990", "line2": "2 30887  98.3669  53.8111 0263607 253.2065 104.0058 14.44890855982921"}}, "geometry": {"type": "Point", "coordinates": [59.28703456655904, -26.36753057747719]}}, {"type": "Feature", "properties": {"norad_id": 30888, "name": "FENGYUN 1C DEB", "group": "fengyun-1c-debris", "lat": -48.9814923508846, "lon": 149.73971721187272, "alt_km": 619.4049122466604, "timestamp": "2025-12-25T09:48:52.569497+00:00", "meta": {"OBJECT_NAME": "FENGYUN 1C DEB", "OBJECT_ID": "1999-025AYA", "EPOCH": "2025-12-24T21:32:46.915008", "MEAN_MOTION": 14.94140109, "ECCENTRICITY": 0.00838876, "INCLINATION": 99.4846, "RA_OF_ASC_NODE": 340.2041, "ARG_OF_PERICENTER": 112.8573, "MEAN_ANOMALY": 248.1527, "EPHEMERIS_TYPE": 0, "CLASSIFICATION_TYPE": "U", "NORAD_CAT_ID": 30888, "ELEMENT_SET_NO": 999, "REV_AT_EPOCH": 98, "BSTAR": 0.0011411662, "MEAN_MOTION_DOT": 0.00013024, "MEAN_MOTION_DDOT": 0}, "tle": {"line1": "1 30888U 99025AYA 25358.89776522  .00013024  00000+0  11412-2 0  9991", "line2": "2 30888  99.4846 340.2041 0083887 112.8573 248.1527 14.94140109   983"}}, "geometry": {"type": "Point", "coordinates": [149.73971721187272, -48.9814923508846]}}, {"type": "Feature", "properties": {"norad_id": 30891, "name": "FENGYUN 1C DEB", "group": "fengyun-1c-debris", "lat": 81.15865219441798, "lon": -49.62165005808008, "alt_km": 846.3930312286257, "timestamp": "2025-12-25T09:48:52.569507+00:00", "meta": {"OBJECT_NAME": "FENGYUN 1C DEB", "OBJECT_ID": "1999-025AYD", "EPOCH": "2025-12-24T02:46:07.019328", "MEAN_MOTION": 14.05895164, "ECCENTRICITY": 0.00557811, "INCLINATION": 98.7839, "RA_OF_ASC_NODE": 45.3913, "ARG_OF_PERICENTER": 155.9075, "MEAN_ANOMALY": 232.1281, "EPHEMERIS_TYPE": 0, "CLASSIFICATION_TYPE": "U", "NORAD_CAT_ID": 30891, "ELEMENT_SET_NO": 999, "REV_AT_EPOCH": 96142, "BSTAR": 0.00058998927, "MEAN_MOTION_DOT": 9.37e-06, "MEAN_MOTION_DDOT": 0}, "tle": {"line1": "1 30891U 99025AYD 25358.11535902  .00000937  00000+0  58999-3 0  9996", "line2": "2 30891  98.7839  45.3913 0055781 155.9075 232.1281 14.05895164961424"}}, "geometry": {"type": "Point", "coordinates": [-49.62165005808008, 81.15865219441798]}}]}